      2.10          N: GNSS NAV DATA                        RINEX VERSION / TYPE
fic2rin                                 06/16/2020 00:17:30 PGM / RUN BY / DATE
                                                            END OF HEADER
30 20  6 15  6  0  0.0-2.419864758849e-04-7.958078640513e-12 0.000000000000e+00
    8.400000000000e+01 6.793750000000e+01 5.099855286586e-09 5.374750563363e-01
    3.535300493240e-06 4.700869554654e-03 7.884576916695e-06 5.153636919022e+03
    1.080000000000e+05 4.097819328308e-08-4.157021240735e-01 5.401670932770e-08
    9.386193578352e-01 2.108750000000e+02-2.850674493898e+00-8.372848762759e-09
   -8.214627886510e-12 1.000000000000e+00 2.110000000000e+03 0.000000000000e+00
    2.400000000000e+00 0.000000000000e+00 3.725290298462e-09 8.400000000000e+01
    1.008000000000e+05 4.000000000000e+00
32 20  6 15  6  0  0.0 3.002365119755e-04 6.934897101019e-12 0.000000000000e+00
    9.000000000000e+01-3.684375000000e+01 4.752340811213e-09-2.130418448731e+00
   -1.847743988037e-06 4.041871172376e-03 9.009614586830e-06 5.153724889755e+03
    1.080000000000e+05 7.078051567078e-08-1.503665138831e+00-3.539025783539e-08
    9.564506834386e-01 2.025937500000e+02-2.434980266656e+00-8.038549123551e-09
   -1.550064566411e-10 1.000000000000e+00 2.110000000000e+03 0.000000000000e+00
    2.400000000000e+00 0.000000000000e+00 4.656612873077e-10 9.000000000000e+01
    1.008000000000e+05 4.000000000000e+00
18 20  6 15  6  0  0.0 2.205152995884e-04 1.068656274583e-11 0.000000000000e+00
    5.000000000000e+00 8.437500000000e-01 4.285892810353e-09 1.923972327136e+00
    3.352761268616e-08 6.028063362464e-04 8.413568139076e-06 5.153724712372e+03
    1.080000000000e+05-1.862645149231e-09 2.716902044847e+00 9.313225746155e-09
    9.642709343949e-01 2.193750000000e+02 2.553424230814e+00-7.948188216800e-09
    3.775157250453e-10 1.000000000000e+00 2.110000000000e+03 0.000000000000e+00
    2.400000000000e+00 0.000000000000e+00-7.916241884232e-09 2.610000000000e+02
    1.008000000000e+05 4.000000000000e+00
 4 20  6 15  6  0  0.0-1.026475802064e-04-4.774847184308e-12 0.000000000000e+00
    2.220000000000e+02-2.425000000000e+01 4.680194948905e-09 2.469685587198e+00
   -1.184642314911e-06 7.738834246993e-04 9.052455425262e-06 5.153673288345e+03
    1.080000000000e+05-2.421438694000e-08-1.464064069311e+00 0.000000000000e+00
    9.596144149465e-01 2.073437500000e+02-2.615511512770e+00-7.981761043814e-09
   -1.528635102359e-10 1.000000000000e+00 2.110000000000e+03 0.000000000000e+00
    2.400000000000e+00 0.000000000000e+00-4.190951585770e-09 2.220000000000e+02
    1.019400000000e+05 4.000000000000e+00
15 20  6 15  5 59 44.0-2.241628244519e-04 2.614797267597e-12 0.000000000000e+00
    4.000000000000e+00-4.740625000000e+01 5.400939256513e-09 2.624610434588e+00
   -2.514570951462e-06 1.233220240101e-02 9.121373295784e-06 5.153699190140e+03
    1.079840000000e+05 1.303851604462e-08-1.602165970289e+00-2.142041921616e-07
    9.278768680360e-01 1.855312500000e+02 8.839235089736e-01-8.173197589343e-09
   -2.110802209099e-10 1.000000000000e+00 2.110000000000e+03 0.000000000000e+00
    2.400000000000e+00 0.000000000000e+00-1.071020960808e-08 4.000000000000e+00
    1.039500000000e+05 4.000000000000e+00
21 20  6 15  5 59 44.0 1.176679506898e-05 4.774847184308e-12 0.000000000000e+00
    4.000000000000e+00 0.000000000000e+00 4.574833417318e-09-8.879321312631e-01
    7.264316082001e-08 2.384632930625e-02 9.182840585709e-06 5.155131820679e+03
    1.079840000000e+05-3.688037395477e-07 2.625399984642e+00 8.009374141693e-08
    9.535810438152e-01 2.072500000000e+02-1.320993444611e+00-8.443923151864e-09
    5.007351433429e-10 1.000000000000e+00 2.110000000000e+03 0.000000000000e+00
    2.400000000000e+00 0.000000000000e+00-1.024454832077e-08 4.000000000000e+00
    1.039500000000e+05 4.000000000000e+00
 6 20  6 15  5 59 44.0-2.888781018555e-04-5.911715561524e-12 0.000000000000e+00
    6.900000000000e+01 8.343750000000e+00 3.883733201648e-09 1.495666249486e+00
    5.569308996201e-07 1.855367445387e-03 8.344650268555e-06 5.153558801651e+03
    1.079840000000e+05 7.450580596924e-08 2.691711354776e+00-3.166496753693e-08
    9.802262021501e-01 2.276250000000e+02-1.049132531484e+00-7.796039022032e-09
    4.182317067436e-10 1.000000000000e+00 2.110000000000e+03 0.000000000000e+00
    2.400000000000e+00 0.000000000000e+00 4.190951585770e-09 6.900000000000e+01
    1.046700000000e+05 4.000000000000e+00
 8 20  6 15  5 59 44.0-3.760075196624e-05-1.364242052659e-12 0.000000000000e+00
    1.900000000000e+01-3.678125000000e+01 4.101956577242e-09-2.682250341716e+00
   -1.888722181320e-06 5.344823817722e-03 7.154420018196e-06 5.153684001923e+03
    1.079840000000e+05-6.332993507385e-08 1.629700686684e+00 2.235174179077e-08
    9.693882701125e-01 2.480312500000e+02-6.541635831676e-02-7.941045062116e-09
   -1.675069773380e-10 1.000000000000e+00 2.110000000000e+03 0.000000000000e+00
    2.400000000000e+00 0.000000000000e+00 5.122274160385e-09 1.900000000000e+01
    1.053900000000e+05 4.000000000000e+00
15 20  6 15  7 59 44.0-2.241441980004e-04 2.614797267597e-12 0.000000000000e+00
    5.000000000000e+00-3.859375000000e+01 5.337008022092e-09-2.608422564321e+00
   -2.337619662285e-06 1.233110169414e-02 8.920207619667e-06 5.153701202393e+03
    1.151840000000e+05 2.011656761169e-07-1.602225549091e+00-1.732259988785e-07
    9.278754138954e-01 1.872187500000e+02 8.839420734040e-01-8.237128823764e-09
   -1.035757429169e-10 1.000000000000e+00 2.110000000000e+03 0.000000000000e+00
    2.400000000000e+00 0.000000000000e+00-1.071020960808e-08 5.000000000000e+00
    1.080000000000e+05 4.000000000000e+00
 8 20  6 15  7 59 44.0-3.761006519198e-05-1.364242052659e-12 0.000000000000e+00
    2.500000000000e+01-4.881250000000e+01 4.158030341511e-09-1.632330150268e+00
   -2.482905983925e-06 5.345830577426e-03 7.061287760735e-06 5.153680845261e+03
    1.151840000000e+05-1.098960638046e-07 1.629643526086e+00-3.352761268616e-08
    9.693870383355e-01 2.498437500000e+02-6.516368310611e-02-7.943902323989e-09
   -1.910793877949e-10 1.000000000000e+00 2.110000000000e+03 0.000000000000e+00
    2.400000000000e+00 0.000000000000e+00 5.122274160385e-09 2.500000000000e+01
    1.080000000000e+05 4.000000000000e+00
 6 20  6 15  7 59 44.0-2.889209426939e-04-5.911715561524e-12 0.000000000000e+00
    7.100000000000e+01 6.406250000000e+00 3.837659853937e-09 2.546053827167e+00
    4.619359970093e-07 1.855525537394e-03 8.344650268555e-06 5.153558233261e+03
    1.151840000000e+05-7.078051567078e-08 2.691656414888e+00 5.587935447693e-08
    9.802291309121e-01 2.288437500000e+02-1.049274055642e+00-7.687105913102e-09
    3.075128091428e-10 1.000000000000e+00 2.110000000000e+03 0.000000000000e+00
    2.400000000000e+00 0.000000000000e+00 4.190951585770e-09 7.100000000000e+01
    1.080000000000e+05 4.000000000000e+00
21 20  6 15  7 59 44.0 1.180078834295e-05 4.774847184308e-12 0.000000000000e+00
    1.200000000000e+01-4.625000000000e+00 4.577690679191e-09 1.613406984534e-01
   -2.626329660416e-07 2.384594234172e-02 8.966773748398e-06 5.155130800247e+03
    1.151840000000e+05-2.868473529816e-07 2.625340337083e+00-3.091990947723e-07
    9.535839959839e-01 2.096250000000e+02-1.320975923241e+00-8.469995666460e-09
    2.339383158984e-10 1.000000000000e+00 2.110000000000e+03 0.000000000000e+00
    2.400000000000e+00 0.000000000000e+00-1.024454832077e-08 1.200000000000e+01
    1.080000000000e+05 4.000000000000e+00
 3 20  6 15  8  0  0.0-2.094237133861e-04-1.216449163621e-11 0.000000000000e+00
    1.500000000000e+01-1.525000000000e+01 4.620906765029e-09 1.366303174503e+00
   -9.480863809586e-07 2.903273329139e-03 5.332753062248e-06 5.153534803391e+03
    1.152000000000e+05-5.587935447693e-09-2.543350038566e+00 6.332993507385e-08
    9.659176739825e-01 2.765937500000e+02 7.212685073627e-01-8.210341993700e-09
    1.960795960737e-10 1.000000000000e+00 2.110000000000e+03 0.000000000000e+00
    2.400000000000e+00 0.000000000000e+00 1.862645149231e-09 1.500000000000e+01
    1.080000000000e+05 4.000000000000e+00
 2 20  6 15  8  0  0.0-4.723975434899e-04-5.911715561524e-12 0.000000000000e+00
    9.000000000000e+01 4.750000000000e+00 4.134815088788e-09 2.624769769774e+00
    2.905726432800e-07 1.969592482783e-02 8.298084139824e-06 5.153719522476e+03
    1.152000000000e+05 2.011656761169e-07 2.623240882866e+00-2.235174179077e-08
    9.596158924937e-01 2.132500000000e+02-1.623834610475e+00-7.568529545349e-09
    2.550106222160e-10 1.000000000000e+00 2.110000000000e+03 0.000000000000e+00
    2.400000000000e+00 0.000000000000e+00-1.769512891769e-08 9.000000000000e+01
    1.080000000000e+05 4.000000000000e+00
 1 20  6 15  8  0  0.0 9.003095328808e-06 9.549694368616e-12 0.000000000000e+00
    5.800000000000e+01-1.250000000000e+00 3.791229348491e-09 2.385166296847e+00
   -1.043081283569e-07 9.974189102650e-03 8.694827556610e-06 5.153713703156e+03
    1.152000000000e+05-6.705522537231e-08 2.699896889063e+00-1.937150955200e-07
    9.806762966927e-01 2.219062500000e+02 7.888931127247e-01-7.663890660380e-09
    3.435857402966e-10 1.000000000000e+00 2.110000000000e+03 0.000000000000e+00
    2.400000000000e+00 0.000000000000e+00 5.122274160385e-09 5.800000000000e+01
    1.080000000000e+05 4.000000000000e+00
 5 20  6 15  8  0  0.0-1.468230038881e-05-7.958078640513e-13 0.000000000000e+00
    5.700000000000e+01-1.993750000000e+01 4.922705050425e-09-9.709273228373e-01
   -7.990747690201e-07 5.924609140493e-03 5.235895514488e-06 5.153673849106e+03
    1.152000000000e+05 7.264316082001e-08-2.575492695289e+00 5.960464477539e-08
    9.528442597538e-01 2.699062500000e+02 8.035058517811e-01-8.342847513086e-09
    1.996511734156e-10 1.000000000000e+00 2.110000000000e+03 0.000000000000e+00
    2.400000000000e+00 0.000000000000e+00-1.117587089539e-08 5.700000000000e+01
    1.080000000000e+05 4.000000000000e+00
